NORAD_CAT_ID,OBJECT_NAME,OBJECT_TYPE,EPOCH,MEAN_MOTION,ECCENTRICITY,INCLINATION,RA_OF_ASC_NODE,ARG_OF_PERICENTER,MEAN_ANOMALY,BSTAR,MEAN_MOTION_DOT,MEAN_MOTION_DDOT,TLE_LINE0,TLE_LINE1,TLE_LINE2,SEMIMAJOR_AXIS,PERIOD,APOGEE,PERIGEE,DECAYED
53621.0,STARLINK-4608,PAYLOAD,2023-10-20 21:13:43,15.08828288,0.0001534,53.2158,183.2701,98.4462,261.6704,-7.2487e-05,-1.441e-05,0.0,0 STARLINK-4608,1 53621U 22104AK  23293.88452677 -.00001441  00000-0 -72487-4 0  9996,2 53621  53.2158 183.2701 0001534  98.4462 261.6704 15.08828288 64175,6917.916,95.438,540.842,538.72,0.0
53621.0,STARLINK-4608,PAYLOAD,2023-10-21 01:59:52,15.08827882,0.0001598,53.216,182.379,91.5494,268.5681,-3.9464e-06,-3.51e-06,0.0,0 STARLINK-4608,1 53621U 22104AK  23294.08324975 -.00000351  00000-0 -39464-5 0  9996,2 53621  53.2160 182.3790 0001598  91.5494 268.5681 15.08827882 63634,6917.917,95.438,540.888,538.677,0.0
53621.0,STARLINK-4608,PAYLOAD,2023-10-21 09:56:48,15.08841332,0.0001582,53.2158,180.8934,98.3317,261.7855,0.00031384,4.71e-05,0.0,0 STARLINK-4608,1 53621U 22104AK  23294.41444728  .00004710  00000-0  31384-3 0  9994,2 53621  53.2158 180.8934 0001582  98.3317 261.7855 15.08841332 63685,6917.876,95.437,540.836,538.647,0.0
53621.0,STARLINK-4608,PAYLOAD,2023-10-21 22:39:52,15.08863517,0.000152,53.2146,178.5166,90.6615,269.4551,0.0012607,0.00019846,0.0,0 STARLINK-4608,1 53621U 22104AK  23294.94436166  .00019846  00000-0  12607-2 0  9991,2 53621  53.2146 178.5166 0001520  90.6615 269.4551 15.08863517 64331,6917.809,95.436,540.725,538.622,0.0
53621.0,STARLINK-4608,PAYLOAD,2023-10-22 09:47:34,15.08850577,0.0001619,53.2158,176.4323,90.2298,269.8879,6.3304e-05,7.2e-06,0.0,0 STARLINK-4608,1 53621U 22104AK  23295.40804199  .00000720  00000-0  63304-4 0  9991,2 53621  53.2158 176.4323 0001619  90.2298 269.8879 15.08850577 63831,6917.848,95.437,540.833,538.593,0.0
53621.0,STARLINK-4608,PAYLOAD,2023-10-22 19:19:54,15.08825735,0.0001694,53.2151,174.6495,84.2586,275.8599,-0.0004817,-7.943e-05,0.0,0 STARLINK-4608,1 53621U 22104AK  23295.80548810 -.00007943  00000-0 -48170-3 0  9999,2 53621  53.2151 174.6495 0001694  84.2586 275.8599 15.08825735 63890,6917.924,95.438,540.961,538.617,0.0
53621.0,STARLINK-4608,PAYLOAD,2023-10-22 20:55:17,15.08818883,0.000158,53.2153,174.3526,80.7841,279.333,0.0011796,0.00018524,0.0,0 STARLINK-4608,1 53621U 22104AK  23295.87173133  .00018524  00000-0  11796-2 0  9996,2 53621  53.2153 174.3526 0001580  80.7841 279.3330 15.08818883 64476,6917.945,95.439,540.903,538.717,0.0
53621.0,STARLINK-4608,PAYLOAD,2023-10-23 22:21:28,15.08854431,0.0001702,53.216,169.5949,77.1955,282.9227,0.001369,0.00021575,0.0,0 STARLINK-4608,1 53621U 22104AK  23296.93157616  .00021575  00000-0  13690-2 0  9997,2 53621  53.2160 169.5949 0001702  77.1955 282.9227 15.08854431 64633,6917.836,95.437,540.879,538.524,0.0
53621.0,STARLINK-4608,PAYLOAD,2023-10-24 15:50:42,15.08857766,0.0001751,53.2165,166.3239,81.2317,278.8874,0.00069878,0.00010856,0.0,0 STARLINK-4608,1 53621U 22104AK  23297.66021089  .00010856  00000-0  69878-3 0  9992,2 53621  53.2165 166.3239 0001751  81.2317 278.8874 15.08857766 64745,6917.826,95.436,540.902,538.48,0.0
53621.0,STARLINK-4608,PAYLOAD,2023-10-24 23:47:37,15.08863632,0.0001678,53.216,164.8361,79.7507,280.3674,0.0006484,0.00010053,0.0,0 STARLINK-4608,1 53621U 22104AK  23297.99140614  .00010053  00000-0  64840-3 0  9997,2 53621  53.2160 164.8361 0001678  79.7507 280.3674 15.08863632 64228,6917.808,95.436,540.834,538.512,0.0
53621.0,STARLINK-4608,PAYLOAD,2023-10-26 20:18:25,15.08845128,0.0001734,53.2166,156.5133,91.1469,268.9722,0.00010764,1.426e-05,0.0,0 STARLINK-4608,1 53621U 22104AK  23299.84612673  .00001426  00000-0  10764-3 0  9992,2 53621  53.2166 156.5133 0001734  91.1469 268.9722 15.08845128 65077,6917.865,95.437,540.929,538.53,0.0
53621.0,STARLINK-4608,PAYLOAD,2023-10-27 01:04:34,15.08851247,0.0001517,53.2152,155.6187,91.0955,269.0211,0.00023365,3.434e-05,0.0,0 STARLINK-4608,1 53621U 22104AK  23300.04484333  .00003434  00000-0  23365-3 0  9999,2 53621  53.2152 155.6187 0001517  91.0955 269.0211 15.08851247 64533,6917.846,95.437,540.76,538.662,0.0
53621.0,STARLINK-4608,PAYLOAD,2023-10-27 07:26:07,15.08847099,0.0001357,53.214,154.4275,81.4337,278.6809,0.0001866,2.684e-05,0.0,0 STARLINK-4608,1 53621U 22104AK  23300.30980430  .00002684  00000-0  18660-3 0  9995,2 53621  53.2140 154.4275 0001357  81.4337 278.6809 15.08847099 65141,6917.859,95.437,540.662,538.785,0.0
53621.0,STARLINK-4608,PAYLOAD,2023-10-27 23:19:58,15.08839582,0.0001412,53.2136,151.4545,83.7052,276.4101,5.4806e-05,5.84e-06,0.0,0 STARLINK-4608,1 53621U 22104AK  23300.97220760  .00000584  00000-0  54806-4 0  9991,2 53621  53.2136 151.4545 0001412  83.7052 276.4101 15.08839582 64670,6917.882,95.438,540.723,538.77,0.0
53621.0,STARLINK-4608,PAYLOAD,2023-10-28 07:16:54,15.08833771,0.0001367,53.2131,149.9668,76.7524,283.362,-5.1925e-05,-1.114e-05,0.0,0 STARLINK-4608,1 53621U 22104AK  23301.30341039 -.00001114  00000-0 -51925-4 0  9993,2 53621  53.2131 149.9668 0001367  76.7524 283.3620 15.08833771 65294,6917.899,95.438,540.71,538.819,0.0
53621.0,STARLINK-4608,PAYLOAD,2023-10-28 20:00:00,15.08839408,0.0001344,53.2148,147.5884,83.0493,277.0652,5.3737e-06,-2.02e-06,0.0,0 STARLINK-4608,1 53621U 22104AK  23301.83333475 -.00000202  00000-0  53737-5 0  9996,2 53621  53.2148 147.5884 0001344  83.0493 277.0652 15.08839408 64801,6917.882,95.438,540.677,538.817,0.0
53621.0,STARLINK-4608,PAYLOAD,2023-10-28 21:35:23,15.08841176,0.0001416,53.2155,147.2918,83.7194,276.3959,2.363e-05,8.8e-07,0.0,0 STARLINK-4608,1 53621U 22104AK  23301.89957342  .00000088  00000-0  23630-4 0  9996,2 53621  53.2155 147.2918 0001416  83.7194 276.3959 15.08841176 65380,6917.877,95.437,540.721,538.762,0.0
53621.0,STARLINK-4608,PAYLOAD,2023-10-29 07:07:41,15.08848789,0.0001438,53.2158,145.5074,83.9795,276.1361,8.3521e-05,1.042e-05,0.0,0 STARLINK-4608,1 53621U 22104AK  23302.29700728  .00001042  00000-0  83521-4 0  9991,2 53621  53.2158 145.5074 0001438  83.9795 276.1361 15.08848789 64875,6917.854,95.437,540.713,538.724,0.0
53621.0,STARLINK-4608,PAYLOAD,2023-10-29 13:29:14,15.08845838,0.0001478,53.2146,144.3178,79.9275,280.1884,0.00019877,2.877e-05,0.0,0 STARLINK-4608,1 53621U 22104AK  23302.56196945  .00002877  00000-0  19877-3 0  9990,2 53621  53.2146 144.3178 0001478  79.9275 280.1884 15.08845838 65481,6917.863,95.437,540.75,538.705,0.0
53621.0,STARLINK-4608,PAYLOAD,2023-10-29 19:50:46,15.08852712,0.0001474,53.2138,143.1285,79.9939,280.122,0.00029152,4.356e-05,0.0,0 STARLINK-4608,1 53621U 22104AK  23302.82692540  .00004356  00000-0  29152-3 0  9992,2 53621  53.2138 143.1285 0001474  79.9939 280.1220 15.08852712 65529,6917.842,95.437,540.726,538.687,0.0
53621.0,STARLINK-4608,PAYLOAD,2023-10-30 13:20:01,15.08839733,0.0001662,53.217,139.8573,92.3091,267.8092,0.00014987,2.098e-05,0.0,0 STARLINK-4608,1 53621U 22104AK  23303.55557133  .00002098  00000-0  14987-3 0  9992,2 53621  53.2170 139.8573 0001662  92.3091 267.8092 15.08839733 65060,6917.881,95.438,540.896,538.596,0.0
53621.0,STARLINK-4608,PAYLOAD,2023-10-30 19:41:34,15.08834377,0.0001421,53.2154,138.6685,86.5374,273.5781,0.00010434,1.373e-05,0.0,0 STARLINK-4608,1 53621U 22104AK  23303.82053610  .00001373  00000-0  10434-3 0  9991,2 53621  53.2154 138.6685 0001421  86.5374 273.5781 15.08834377 65108,6917.898,95.438,540.746,538.78,0.0
53621.0,STARLINK-4608,PAYLOAD,2023-10-31 19:32:20,15.0884613,0.0001437,53.2158,134.2071,89.3979,270.7178,-5.2932e-06,-3.72e-06,0.0,0 STARLINK-4608,1 53621U 22104AK  23304.81412962 -.00000372  00000-0 -52932-5 0  9991,2 53621  53.2158 134.2071 0001437  89.3979 270.7178 15.08846130 65257,6917.862,95.437,540.721,538.733,0.0
53621.0,STARLINK-4608,PAYLOAD,2023-11-01 13:01:35,15.08836342,0.0001469,53.2157,130.9357,94.4524,265.6636,0.0001466,2.046e-05,0.0,0 STARLINK-4608,1 53621U 22104AK  23305.54277206  .00002046  00000-0  14660-3 0  9994,2 53621  53.2157 130.9357 0001469  94.4524 265.6636 15.08836342 65362,6917.892,95.438,540.773,538.74,0.0
53621.0,STARLINK-4608,PAYLOAD,2023-11-01 19:23:07,15.08843556,0.0001374,53.2148,129.7464,87.1273,272.9876,0.00018174,2.606e-05,0.0,0 STARLINK-4608,1 53621U 22104AK  23305.80773000  .00002606  00000-0  18174-3 0  9992,2 53621  53.2148 129.7464 0001374  87.1273 272.9876 15.08843556 65971,6917.87,95.437,540.685,538.784,0.0
53621.0,STARLINK-4608,PAYLOAD,2023-11-02 12:52:22,15.08836435,0.0001397,53.2157,126.4756,85.6167,274.4985,4.4223e-05,4.16e-06,0.0,0 STARLINK-4608,1 53621U 22104AK  23306.53637656  .00000416  00000-0  44223-4 0  9991,2 53621  53.2157 126.4756 0001397  85.6167 274.4985 15.08836435 66088,6917.891,95.438,540.723,538.79,0.0
53621.0,STARLINK-4608,PAYLOAD,2023-11-02 19:13:55,15.08841368,0.0001345,53.2158,125.2863,87.485,272.6296,5.0833e-05,5.21e-06,0.0,0 STARLINK-4608,1 53621U 22104AK  23306.80133309  .00000521  00000-0  50833-4 0  9998,2 53621  53.2158 125.2863 0001345  87.4850 272.6296 15.08841368 65554,6917.876,95.437,540.672,538.811,0.0
53621.0,STARLINK-4608,PAYLOAD,2023-11-03 04:46:14,15.08832705,0.0001353,53.2158,123.502,84.9255,275.1891,-7.1639e-06,-4.02e-06,0.0,0 STARLINK-4608,1 53621U 22104AK  23307.19878016 -.00000402  00000-0 -71639-5 0  9990,2 53621  53.2158 123.5020 0001353  84.9255 275.1891 15.08832705 65611,6917.903,95.438,540.704,538.832,0.0
53621.0,STARLINK-4608,PAYLOAD,2023-11-03 12:43:10,15.08836005,0.0001287,53.2158,122.0151,85.8295,274.2844,-3.8961e-06,-3.5e-06,0.0,0 STARLINK-4608,1 53621U 22104AK  23307.52997933 -.00000350  00000-0 -38961-5 0  9990,2 53621  53.2158 122.0151 0001287  85.8295 274.2844 15.08836005 66234,6917.893,95.438,540.648,538.867,0.0
53621.0,STARLINK-4608,PAYLOAD,2023-11-03 20:40:05,15.08840777,0.0001305,53.2162,120.5282,86.2835,273.8307,3.3747e-05,2.49e-06,0.0,0 STARLINK-4608,1 53621U 22104AK  23307.86117572  .00000249  00000-0  33747-4 0  9991,2 53621  53.2162 120.5282 0001305  86.2835 273.8307 15.08840777 65715,6917.878,95.438,540.646,538.84,0.0
